STARLINK-4161           
1 53028U 22076AU  22210.91667824  .00017477  00000+0  12884-3 0  9996
2 53028  53.2175 268.8508 0001710  27.7882 218.1196 15.73170888  1303
STARLINK-4143           
1 53029U 22076AV  22210.91667824  .00017236  00000+0  12692-3 0  9997
2 53029  53.2176 268.8468 0002189  28.9985 219.8650 15.73209960  1305
STARLINK-4160           
1 53030U 22076AW  22210.91667824  .00011590  00000+0  87036-4 0  9991
2 53030  53.2174 268.8476 0001593  28.6432 218.4716 15.73157682  1307
STARLINK-4137           
1 53031U 22076AX  22210.91667824  .00017493  00000+0  12873-3 0  9996
2 53031  53.2175 268.8426 0002035  38.9670 211.6569 15.73211828  1308
STARLINK-4115           
1 53032U 22076AY  22210.91667824  .00012174  00000+0  91077-4 0  9992
2 53032  53.2167 268.8453 0002251  28.0518 219.6247 15.73188031  1301
STARLINK-4167           
1 53033U 22076AZ  22210.91667824  .00166755  00000+0  11782-2 0  9991
2 53033  53.2177 268.8454 0002313  36.0783 213.6058 15.73017755  1304
STARLINK-4151           
1 53034U 22076BA  22210.91667824  .00018381  00000+0  13522-3 0  9998
2 53034  53.2178 268.8454 0002167  21.2202 228.2631 15.73177767  1304
STARLINK-4157           
1 53035U 22076BB  22210.91667824  .00018951  00000+0  13928-3 0  9992
2 53035  53.2176 268.8421 0002116  21.8201 229.4620 15.73175816  1300
STARLINK-4155           
1 53036U 22076BC  22210.91667824  .00017644  00000+0  13007-3 0  9999
2 53036  53.2171 268.8384 0001767  26.4329 225.4376 15.73163335  1304
STARLINK-4153           
1 53037U 22076BD  22210.91667824  .00015363  00000+0  11387-3 0  9995
2 53037  53.2174 268.8386 0001949  33.9403 218.5065 15.73159696  1301
STARLINK-4156           
1 53038U 22076BE  22210.91667824  .00014426  00000+0  10707-3 0  9990
2 53038  53.2171 268.8360 0002060  28.3388 224.7128 15.73190905  1303
STARLINK-4362           
1 53043U 22077A   22210.91667824 -.01391093  00000+0 -21029-1 0  9995
2 53043  97.6554  30.1646 0001970  66.0010 102.4015 15.57525908  1307
STARLINK-4349           
1 53044U 22077B   22210.91667824 -.01262476  00000+0 -22232-1 0  9995
2 53044  97.6553  30.1651 0001796  71.8583  19.3929 15.53119168  1301
STARLINK-4350           
1 53045U 22077C   22210.91667824 -.01269831  00000+0 -22366-1 0  9996
2 53045  97.6553  30.1645 0001700  79.8242  12.1913 15.53130334  1302
STARLINK-4331           
1 53046U 22077D   22210.91667824 -.01277301  00000+0 -22502-1 0  9990
2 53046  97.6553  30.1637 0001632  85.2188   7.5610 15.53141602  1300
STARLINK-4352           
1 53047U 22077E   22210.91667824 -.01286916  00000+0 -22671-1 0  9990
2 53047  97.6553  30.1633 0001714  63.3542  30.9543 15.53162136  1309
STARLINK-4355           
1 53048U 22077F   22210.91667824 -.01285769  00000+0 -22656-1 0  9999
2 53048  97.6553  30.1639 0001711  63.4754  30.0685 15.53153347  1301
STARLINK-4345           
1 53049U 22077G   22210.91667824 -.01310539  00000+0 -23101-1 0  9990
2 53049  97.6553  30.1611 0001682  60.9616  35.6383 15.53196997  1302
STARLINK-4343           
1 53050U 22077H   22210.91667824 -.01294527  00000+0 -22810-1 0  9996
2 53050  97.6553  30.1624 0001599  72.9030  22.1694 15.53173617  1308
STARLINK-4336           
1 53051U 22077J   22210.91667824 -.01319009  00000+0 -23248-1 0  9996
2 53051  97.6553  30.1607 0001775  55.8923  42.2354 15.53217237  1300
STARLINK-4341           
1 53052U 22077K   22210.91667824 -.01302552  00000+0 -22956-1 0  9997
2 53052  97.6553  30.1616 0001618  67.4962  28.3400 15.53185295  1304
STARLINK-4337           
1 53053U 22077L   22210.91667824 -.01333703  00000+0 -23514-1 0  9991
2 53053  97.6553  30.1601 0001834  58.0582  41.5964 15.53240364  1304
STARLINK-4339           
1 53054U 22077M   22210.91667824 -.01311202  00000+0 -23107-1 0  9990
2 53054  97.6553  30.1612 0001637  65.4936  31.8706 15.53205594  1305
STARLINK-4338           
1 53055U 22077N   22210.91667824 -.01340854  00000+0 -23636-1 0  9993
2 53055  97.6553  30.1587 0001886  58.6201  42.5616 15.53260159  1309
STARLINK-4314           
1 53056U 22077P   22210.91667824 -.01326476  00000+0 -23384-1 0  9998
2 53056  97.6553  30.1608 0001707  64.3602  34.5310 15.53228867  1307
STARLINK-4252           
1 53057U 22077Q   22210.91667824 -.01352579  00000+0 -23846-1 0  9995
2 53057  97.6553  30.1581 0001852  69.9146  32.7935 15.53282105  1301
STARLINK-4317           
1 53058U 22077R   22210.91667824 -.01334121  00000+0 -23515-1 0  9992
2 53058  97.6553  30.1592 0001820  59.3661  41.0524 15.53248837  1305
STARLINK-4320           
1 53059U 22077S   22210.91667824 -.01357805  00000+0 -23931-1 0  9999
2 53059  97.6553  30.1566 0001918  66.5905  37.6444 15.53301041  1305
STARLINK-4305           
1 53060U 22077T   22210.91667824 -.01347018  00000+0 -23746-1 0  9990
2 53060  97.6553  30.1588 0001969  56.7879  45.1571 15.53271224  1302
STARLINK-4308           
1 53061U 22077U   22210.91667824 -.01365865  00000+0 -24071-1 0  9993
2 53061  97.6553  30.1562 0001882  71.6634  34.0976 15.53321265  1301
STARLINK-4311           
1 53062U 22077V   22210.91667824 -.01352807  00000+0 -23843-1 0  9992
2 53062  97.6553  30.1573 0001876  67.6693  35.8025 15.53290479  1303
STARLINK-4307           
1 53063U 22077W   22210.91667824 -.01391377  00000+0 -21367-1 0  9997
2 53063  97.6554  30.1718 0001889  67.8932  58.3992 15.57107437  1306
STARLINK-4313           
1 53064U 22077X   22210.91667824 -.01362095  00000+0 -24006-1 0  9996
2 53064  97.6553  30.1559 0001896  70.2664  34.7315 15.53311282  1305
STARLINK-4312           
1 53065U 22077Y   22210.91667824 -.01371981  00000+0 -24167-1 0  9999
2 53065  97.6553  30.1539 0001789  80.2484  27.8018 15.53348831  1309
STARLINK-4309           
1 53066U 22077Z   22210.91667824 -.01365534  00000+0 -24058-1 0  9996
2 53066  97.6553  30.1553 0001808  87.5087  19.0156 15.53329398  1300
STARLINK-4306           
1 53067U 22077AA  22210.91667824 -.01376905  00000+0 -24238-1 0  9991
2 53067  97.6553  30.1527 0001973  54.4145  55.9245 15.53375676  1301
STARLINK-4325           
1 53068U 22077AB  22210.91667824 -.01374749  00000+0 -24212-1 0  9998
2 53068  97.6553  30.1531 0001882  63.5316  45.2816 15.53358258  1300
STARLINK-4323           
1 53069U 22077AC  22210.91667824 -.01378966  00000+0 -24265-1 0  9992
2 53069  97.6553  30.1511 0001693  80.8290  31.0354 15.53393267  1301
STARLINK-4342           
1 53070U 22077AD  22210.91667824 -.01374659  00000+0 -24203-1 0  9991
2 53070  97.6553  30.1533 0001880  63.7629  45.8133 15.53366495  1302
STARLINK-4328           
1 53071U 22077AE  22210.91667824 -.01383354  00000+0 -24334-1 0  9999
2 53071  97.6553  30.1507 0001732  69.8998  43.4896 15.53411746  1306
STARLINK-4344           
1 53072U 22077AF  22210.91667824 -.01379221  00000+0 -24276-1 0  9993
2 53072  97.6553  30.1518 0001849  60.7336  50.3681 15.53385017  1304
STARLINK-4346           
1 53073U 22077AG  22210.91667824 -.01385282  00000+0 -24356-1 0  9997
2 53073  97.6553  30.1492 0001755  68.0666  46.8476 15.53429161  1300
STARLINK-4310           
1 53074U 22077AH  22210.91667824 -.01381122  00000+0 -24299-1 0  9993
2 53074  97.6553  30.1504 0001683  78.8332  33.7937 15.53402512  1302
STARLINK-4348           
1 53075U 22077AJ  22210.91667824 -.01389202  00000+0 -24416-1 0  9992
2 53075  97.6553  30.1478 0001770  72.4362  44.0021 15.53447614  1304
STARLINK-4347           
1 53076U 22077AK  22210.91667824 -.01385390  00000+0 -24365-1 0  9990
2 53076  97.6553  30.1498 0001807  62.8447  51.3070 15.53420924  1305
STARLINK-4315           
1 53077U 22077AL  22210.91667824 -.01392587  00000+0 -24465-1 0  9998
2 53077  97.6553  30.1472 0001872  69.0694  48.8929 15.53465815  1305
STARLINK-4322           
1 53078U 22077AM  22210.91667824 -.01387070  00000+0 -24381-1 0  9997
2 53078  97.6553  30.1483 0001988  52.3416  63.3348 15.53438146  1307
STARLINK-4327           
1 53079U 22077AN  22210.91667824 -.01392361  00000+0 -24453-1 0  9997
2 53079  97.6553  30.1465 0001915  65.1644  53.5599 15.53473949  1302
STARLINK-4330           
1 53080U 22077AP  22210.91667824 -.01390553  00000+0 -24431-1 0  9996
2 53080  97.6553  30.1479 0002199  46.2561  70.9445 15.53456315  1303
STARLINK-4326           
1 53081U 22077AQ  22210.91667824 -.01394758  00000+0 -24484-1 0  9996
2 53081  97.6553  30.1451 0001897  73.7552  46.4927 15.53491782  1303
STARLINK-4321           
1 53082U 22077AR  22210.91667824 -.01393704  00000+0 -24471-1 0  9993
2 53082  97.6553  30.1456 0001941  65.9504  53.5358 15.53482901  1309
STARLINK-4251           
1 53083U 22077AS  22210.91667824 -.00020162  00000+0 -33738-3 0  9996
2 53083  97.6572  30.1454 0001574  70.5800 331.3434 15.51781106  1301
STARLINK-4319           
1 53084U 22077AT  22210.91667824 -.01395510  00000+0 -24491-1 0  9994
2 53084  97.6553  30.1451 0001888  77.8752  43.1343 15.53500461  1304
STARLINK-4324           
1 53085U 22077AU  22210.91667824 -.01394927  00000+0 -24469-1 0  9991
2 53085  97.6553  30.1440 0002214  51.6137  71.3706 15.53509251  1306
STARLINK-4318           
1 53086U 22077AV  22210.91667824 -.01395507  00000+0 -24490-1 0  9991
2 53086  97.6553  30.1446 0001891  77.8983  44.3241 15.53501488  1300
STARLINK-4329           
1 53087U 22077AW  22210.91667824 -.01395897  00000+0 -24475-1 0  9997
2 53087  97.6553  30.1426 0001927  71.9674  52.5398 15.53526482  1306
STARLINK-4333           
1 53088U 22077AX  22210.91667824 -.01395687  00000+0 -24478-1 0  9998
2 53088  97.6553  30.1430 0001976  67.4875  56.2582 15.53518073  1302
FALCON 9 DEB            
1 53089U 22077AY  22210.75927046  .00112949  70026-5  36299-3 0  9998
2 53089  97.6732  30.5503 0008689 196.2363 163.8632 15.90955624  2971
FALCON 9 DEB            
1 53090U 22077AZ  22210.75338296  .00120102  76480-5  37319-3 0  9997
2 53090  97.6722  30.5549 0006443 187.5732 172.5445 15.91638121  2971
